[{"OBJECT_NAME":"STARLINK-4451","OBJECT_ID":"2022-099AD","EPOCH":"2026-03-09T21:19:47.475552","MEAN_MOTION":15.01260357,"ECCENTRICITY":0.0002075,"INCLINATION":97.6039,"RA_OF_ASC_NODE":190.4159,"ARG_OF_PERICENTER":231.9168,"MEAN_ANOMALY":128.187,"EPHEMERIS_TYPE":0,"CLASSIFICATION_TYPE":"U","NORAD_CAT_ID":53492,"ELEMENT_SET_NO":999,"REV_AT_EPOCH":19601,"BSTAR":8.9132214e-5,"MEAN_MOTION_DOT":1.087e-5,"MEAN_MOTION_DDOT":0},{"OBJECT_NAME":"ICEYE-X53","OBJECT_ID":"2025-135BJ","EPOCH":"2026-03-09T22:54:54.338112","MEAN_MOTION":15.00849861,"ECCENTRICITY":0.00010276,"INCLINATION":97.7425,"RA_OF_ASC_NODE":186.1287,"ARG_OF_PERICENTER":193.9381,"MEAN_ANOMALY":166.1815,"EPHEMERIS_TYPE":0,"CLASSIFICATION_TYPE":"U","NORAD_CAT_ID":64584,"ELEMENT_SET_NO":999,"REV_AT_EPOCH":3919,"BSTAR":0.00050918186,"MEAN_MOTION_DOT":6.416e-5,"MEAN_MOTION_DDOT":0}]
